start=new Date('2022-11-26T00:00:00.000Z').valueOf();
sats=[{"EPOCH":"2022-11-25T22:00:00.999936","OBJECT_TYPE":"PAYLOAD","CLASSIFICATION_TYPE":"U","ARG_OF_PERICENTER":"3.8740","OBJECT_ID":"2022-136AN","SITE":"AFETR","EPHEMERIS_TYPE":"0","CENTER_NAME":"EARTH","REV_AT_EPOCH":"130","TIME_SYSTEM":"UTC","RCS_SIZE":"LARGE","MEAN_MOTION_DDOT":"0.0000000000000","OBJECT_NAME":"STARLINK-5184","REF_FRAME":"TEME","LAUNCH_DATE":"2022-10-20","MEAN_MOTION_DOT":"-0.00006622","PERIOD":"91.531","MEAN_MOTION":"15.73239008","NORAD_CAT_ID":"54087","INCLINATION":"53.2146","MEAN_ANOMALY":"36.8296","ECCENTRICITY":"0.00040890","PERIAPSIS":"346.898","GP_ID":"218823910","DECAY_DATE":null,"SEMIMAJOR_AXIS":"6727.784","APOAPSIS":"352.400","RA_OF_ASC_NODE":"328.2058","BSTAR":"-0.00004267000000","FILE":"3670141","MEAN_ELEMENT_THEORY":"SGP4","TLE_LINE2":"2 54087  53.2146 328.2058 0004089   3.8740  36.8296 15.73239008  1304","ELEMENT_SET_NO":"999","TLE_LINE1":"1 54087U 22136AN  22329.91667824 -.00006622  00000-0 -42670-4 0  9990","COUNTRY_CODE":"US"},{"RCS_SIZE":"LARGE","TIME_SYSTEM":"UTC","REV_AT_EPOCH":"130","PERIOD":"91.532","LAUNCH_DATE":"2022-10-20","MEAN_MOTION_DOT":"0.00069002","REF_FRAME":"TEME","MEAN_MOTION_DDOT":"0.0000000000000","OBJECT_NAME":"STARLINK-5153","SITE":"AFETR","EPHEMERIS_TYPE":"0","OBJECT_ID":"2022-136AP","ARG_OF_PERICENTER":"9.5765","CLASSIFICATION_TYPE":"U","OBJECT_TYPE":"PAYLOAD","EPOCH":"2022-11-25T22:00:00.999936","CENTER_NAME":"EARTH","APOAPSIS":"352.420","SEMIMAJOR_AXIS":"6727.844","COUNTRY_CODE":"US","TLE_LINE1":"1 54088U 22136AP  22329.91667824  .00069002  00000-0  49149-3 0  9997","TLE_LINE2":"2 54088  53.2147 328.2085 0004030   9.5765  29.3386 15.73218107  1306","ELEMENT_SET_NO":"999","FILE":"3670141","MEAN_ELEMENT_THEORY":"SGP4","BSTAR":"0.00049149000000","RA_OF_ASC_NODE":"328.2085","MEAN_ANOMALY":"29.3386","INCLINATION":"53.2147","NORAD_CAT_ID":"54088","MEAN_MOTION":"15.73218107","DECAY_DATE":null,"GP_ID":"218824076","PERIAPSIS":"346.997","ECCENTRICITY":"0.00040300"},{"MEAN_MOTION":"15.73241658","MEAN_ANOMALY":"34.1385","NORAD_CAT_ID":"54089","INCLINATION":"53.2138","PERIAPSIS":"346.910","ECCENTRICITY":"0.00040600","GP_ID":"218822866","DECAY_DATE":null,"APOAPSIS":"352.373","SEMIMAJOR_AXIS":"6727.776","MEAN_ELEMENT_THEORY":"SGP4","FILE":"3670141","BSTAR":"-0.00004401800000","RA_OF_ASC_NODE":"328.2014","COUNTRY_CODE":"US","TLE_LINE1":"1 54089U 22136AQ  22329.91667824 -.00006812  00000-0 -44018-4 0  9991","TLE_LINE2":"2 54089  53.2138 328.2014 0004060   8.3590  34.1385 15.73241658  1305","ELEMENT_SET_NO":"999","EPOCH":"2022-11-25T22:00:00.999936","OBJECT_TYPE":"PAYLOAD","OBJECT_ID":"2022-136AQ","EPHEMERIS_TYPE":"0","SITE":"AFETR","CLASSIFICATION_TYPE":"U","ARG_OF_PERICENTER":"8.3590","CENTER_NAME":"EARTH","TIME_SYSTEM":"UTC","REV_AT_EPOCH":"130","RCS_SIZE":"LARGE","REF_FRAME":"TEME","MEAN_MOTION_DDOT":"0.0000000000000","OBJECT_NAME":"STARLINK-5143","PERIOD":"91.531","MEAN_MOTION_DOT":"-0.00006812","LAUNCH_DATE":"2022-10-20"},{"ECCENTRICITY":"0.00039850","PERIAPSIS":"347.075","GP_ID":"218823041","DECAY_DATE":null,"MEAN_MOTION":"15.73201518","NORAD_CAT_ID":"54090","INCLINATION":"53.2144","MEAN_ANOMALY":"39.9402","RA_OF_ASC_NODE":"328.2015","BSTAR":"0.00002151400000","MEAN_ELEMENT_THEORY":"SGP4","FILE":"3670141","TLE_LINE1":"1 54090U 22136AR  22329.91667824  .00002397  00000-0  21514-4 0  9991","TLE_LINE2":"2 54090  53.2144 328.2015 0003985   2.0016  39.9402 15.73201518  1308","ELEMENT_SET_NO":"999","COUNTRY_CODE":"US","SEMIMAJOR_AXIS":"6727.891","APOAPSIS":"352.437","CENTER_NAME":"EARTH","EPOCH":"2022-11-25T22:00:00.999936","OBJECT_TYPE":"PAYLOAD","CLASSIFICATION_TYPE":"U","ARG_OF_PERICENTER":"2.0016","OBJECT_ID":"2022-136AR","SITE":"AFETR","EPHEMERIS_TYPE":"0","MEAN_MOTION_DDOT":"0.0000000000000","OBJECT_NAME":"STARLINK-5177","REF_FRAME":"TEME","MEAN_MOTION_DOT":"0.00002397","LAUNCH_DATE":"2022-10-20","PERIOD":"91.533","REV_AT_EPOCH":"130","TIME_SYSTEM":"UTC","RCS_SIZE":"LARGE"},{"MEAN_MOTION":"15.73237186","MEAN_ANOMALY":"36.0388","NORAD_CAT_ID":"54091","INCLINATION":"53.2149","PERIAPSIS":"346.964","ECCENTRICITY":"0.00039980","DECAY_DATE":null,"GP_ID":"218823577","APOAPSIS":"352.344","SEMIMAJOR_AXIS":"6727.789","FILE":"3670141","MEAN_ELEMENT_THEORY":"SGP4","BSTAR":"-0.00000049982000","RA_OF_ASC_NODE":"328.2008","COUNTRY_CODE":"US","ELEMENT_SET_NO":"999","TLE_LINE2":"2 54091  53.2149 328.2008 0003998   8.2945  36.0388 15.73237186  1300","TLE_LINE1":"1 54091U 22136AS  22329.91667824 -.00000695  00000-0 -49982-6 0  9994","OBJECT_TYPE":"PAYLOAD","EPOCH":"2022-11-25T22:00:00.999936","SITE":"AFETR","EPHEMERIS_TYPE":"0","OBJECT_ID":"2022-136AS","ARG_OF_PERICENTER":"8.2945","CLASSIFICATION_TYPE":"U","CENTER_NAME":"EARTH","TIME_SYSTEM":"UTC","REV_AT_EPOCH":"130","RCS_SIZE":"LARGE","REF_FRAME":"TEME","OBJECT_NAME":"STARLINK-5221","MEAN_MOTION_DDOT":"0.0000000000000","PERIOD":"91.531","LAUNCH_DATE":"2022-10-20","MEAN_MOTION_DOT":"-0.00000695"},{"CENTER_NAME":"EARTH","OBJECT_TYPE":"PAYLOAD","EPOCH":"2022-11-25T22:00:00.999936","ARG_OF_PERICENTER":"4.2576","CLASSIFICATION_TYPE":"U","EPHEMERIS_TYPE":"0","SITE":"AFETR","OBJECT_ID":"2022-136AT","OBJECT_NAME":"STARLINK-5190","MEAN_MOTION_DDOT":"0.0000000000000","REF_FRAME":"TEME","MEAN_MOTION_DOT":"0.00095656","LAUNCH_DATE":"2022-10-20","PERIOD":"91.534","REV_AT_EPOCH":"130","TIME_SYSTEM":"UTC","RCS_SIZE":"LARGE","ECCENTRICITY":"0.00039530","PERIAPSIS":"347.118","DECAY_DATE":null,"GP_ID":"218823743","MEAN_MOTION":"15.73193862","NORAD_CAT_ID":"54092","INCLINATION":"53.2151","MEAN_ANOMALY":"36.9850","BSTAR":"0.00067821000000","RA_OF_ASC_NODE":"328.2064","MEAN_ELEMENT_THEORY":"SGP4","FILE":"3670141","TLE_LINE1":"1 54092U 22136AT  22329.91667824  .00095656  00000-0  67821-3 0  9993","TLE_LINE2":"2 54092  53.2151 328.2064 0003953   4.2576  36.9850 15.73193862  1308","ELEMENT_SET_NO":"999","COUNTRY_CODE":"US","SEMIMAJOR_AXIS":"6727.913","APOAPSIS":"352.437"},{"EPOCH":"2022-11-25T22:00:00.999936","OBJECT_TYPE":"PAYLOAD","OBJECT_ID":"2022-136AU","EPHEMERIS_TYPE":"0","SITE":"AFETR","CLASSIFICATION_TYPE":"U","ARG_OF_PERICENTER":"5.8441","CENTER_NAME":"EARTH","TIME_SYSTEM":"UTC","REV_AT_EPOCH":"130","RCS_SIZE":"LARGE","REF_FRAME":"TEME","MEAN_MOTION_DDOT":"0.0000000000000","OBJECT_NAME":"STARLINK-5213","PERIOD":"91.531","LAUNCH_DATE":"2022-10-20","MEAN_MOTION_DOT":"0.00006479","MEAN_MOTION":"15.73240574","MEAN_ANOMALY":"39.0419","NORAD_CAT_ID":"54093","INCLINATION":"53.2143","PERIAPSIS":"346.935","ECCENTRICITY":"0.00040280","GP_ID":"218823233","DECAY_DATE":null,"APOAPSIS":"352.354","SEMIMAJOR_AXIS":"6727.779","MEAN_ELEMENT_THEORY":"SGP4","FILE":"3670141","RA_OF_ASC_NODE":"328.1964","BSTAR":"0.00005047000000","COUNTRY_CODE":"US","TLE_LINE2":"2 54093  53.2143 328.1964 0004028   5.8441  39.0419 15.73240574  1308","ELEMENT_SET_NO":"999","TLE_LINE1":"1 54093U 22136AU  22329.91667824  .00006479  00000-0  50470-4 0  9992"},{"CENTER_NAME":"EARTH","ARG_OF_PERICENTER":"8.6971","CLASSIFICATION_TYPE":"U","SITE":"AFETR","EPHEMERIS_TYPE":"0","OBJECT_ID":"2022-136AV","OBJECT_TYPE":"PAYLOAD","EPOCH":"2022-11-25T22:00:00.999936","MEAN_MOTION_DOT":"0.00104414","LAUNCH_DATE":"2022-10-20","PERIOD":"91.534","MEAN_MOTION_DDOT":"0.0000000000000","OBJECT_NAME":"STARLINK-5219","REF_FRAME":"TEME","RCS_SIZE":"LARGE","REV_AT_EPOCH":"130","TIME_SYSTEM":"UTC","DECAY_DATE":null,"GP_ID":"218823409","ECCENTRICITY":"0.00039120","PERIAPSIS":"347.185","NORAD_CAT_ID":"54094","INCLINATION":"53.2150","MEAN_ANOMALY":"34.4224","MEAN_MOTION":"15.73180243","TLE_LINE2":"2 54094  53.2150 328.2035 0003912   8.6971  34.4224 15.73180243  1306","ELEMENT_SET_NO":"999","TLE_LINE1":"1 54094U 22136AV  22329.91667824  .00104414  00000-0  73957-3 0  9995","COUNTRY_CODE":"US","BSTAR":"0.00073957000000","RA_OF_ASC_NODE":"328.2035","FILE":"3670141","MEAN_ELEMENT_THEORY":"SGP4","SEMIMAJOR_AXIS":"6727.952","APOAPSIS":"352.448"},{"REV_AT_EPOCH":"130","TIME_SYSTEM":"UTC","RCS_SIZE":"LARGE","OBJECT_NAME":"STARLINK-5193","MEAN_MOTION_DDOT":"0.0000000000000","REF_FRAME":"TEME","LAUNCH_DATE":"2022-10-20","MEAN_MOTION_DOT":"0.00061609","PERIOD":"91.532","EPOCH":"2022-11-25T22:00:00.999936","OBJECT_TYPE":"PAYLOAD","CLASSIFICATION_TYPE":"U","ARG_OF_PERICENTER":"1.8861","OBJECT_ID":"2022-136AW","SITE":"AFETR","EPHEMERIS_TYPE":"0","CENTER_NAME":"EARTH","SEMIMAJOR_AXIS":"6727.842","APOAPSIS":"352.471","RA_OF_ASC_NODE":"328.1957","BSTAR":"0.00043967000000","MEAN_ELEMENT_THEORY":"SGP4","FILE":"3670141","TLE_LINE2":"2 54095  53.2144 328.1957 0004108   1.8861  44.1610 15.73218753  1308","TLE_LINE1":"1 54095U 22136AW  22329.91667824  .00061609  00000-0  43967-3 0  9992","ELEMENT_SET_NO":"999","COUNTRY_CODE":"US","MEAN_MOTION":"15.73218753","NORAD_CAT_ID":"54095","INCLINATION":"53.2144","MEAN_ANOMALY":"44.1610","ECCENTRICITY":"0.00041080","PERIAPSIS":"346.943","GP_ID":"218823911","DECAY_DATE":null},{"REF_FRAME":"TEME","OBJECT_NAME":"STARLINK-5188","MEAN_MOTION_DDOT":"0.0000000000000","PERIOD":"91.533","LAUNCH_DATE":"2022-10-20","MEAN_MOTION_DOT":"0.00093831","TIME_SYSTEM":"UTC","REV_AT_EPOCH":"130","RCS_SIZE":"LARGE","CENTER_NAME":"EARTH","EPOCH":"2022-11-25T22:00:00.999936","OBJECT_TYPE":"PAYLOAD","OBJECT_ID":"2022-136AX","SITE":"AFETR","EPHEMERIS_TYPE":"0","CLASSIFICATION_TYPE":"U","ARG_OF_PERICENTER":"10.4605","FILE":"3670141","MEAN_ELEMENT_THEORY":"SGP4","BSTAR":"0.00066539000000","RA_OF_ASC_NODE":"328.1994","COUNTRY_CODE":"US","TLE_LINE2":"2 54096  53.2145 328.1994 0003608  10.4605  33.2504 15.73198994  1302","ELEMENT_SET_NO":"999","TLE_LINE1":"1 54096U 22136AX  22329.91667824  .00093831  00000-0  66539-3 0  9995","APOAPSIS":"352.190","SEMIMAJOR_AXIS":"6727.898","PERIAPSIS":"347.336","ECCENTRICITY":"0.00036080","GP_ID":"218824077","DECAY_DATE":null,"MEAN_MOTION":"15.73198994","MEAN_ANOMALY":"33.2504","NORAD_CAT_ID":"54096","INCLINATION":"53.2145"}];
